SPORT                   
1 55129U 98067UW  23276.02100743  .00917944  48731-3  97361-3 0  9998
2 55129  51.6154 117.6696 0007676 244.4024 115.6197 16.09608268 43607
